start=new Date('2021-12-11T00:00:00.000Z').valueOf();
sats=[{"MEAN_ANOMALY":"279.8042","BSTAR":"-0.00003039600000","REV_AT_EPOCH":"4271","TIME_SYSTEM":"UTC","PERIAPSIS":"546.386","INCLINATION":"53.0570","GP_ID":"191458901","COUNTRY_CODE":"US","CENTER_NAME":"EARTH","OBJECT_ID":"2021-021BJ","PERIOD":"95.592","REF_FRAME":"TEME","TLE_LINE1":"1 47916U 21021BJ  21344.81770119 -.00000734  00000-0 -30396-4 0  9992","MEAN_ELEMENT_THEORY":"SGP4","MEAN_MOTION_DOT":"-0.00000734","DECAY_DATE":null,"EPHEMERIS_TYPE":"0","SITE":"AFETR","CLASSIFICATION_TYPE":"U","APOAPSIS":"548.062","MEAN_MOTION_DDOT":"0.0000000000000","RCS_SIZE":"LARGE","OBJECT_NAME":"STARLINK-2378","MEAN_MOTION":"15.06396681","ARG_OF_PERICENTER":"80.3083","EPOCH":"2021-12-10T19:37:29.382816","FILE":"3237005","ECCENTRICITY":"0.00012100","NORAD_CAT_ID":"47916","SEMIMAJOR_AXIS":"6925.359","ELEMENT_SET_NO":"999","OBJECT_TYPE":"PAYLOAD","TLE_LINE2":"2 47916  53.0570  19.2540 0001210  80.3083 279.8042 15.06396681 42717","LAUNCH_DATE":"2021-03-14","RA_OF_ASC_NODE":"19.2540"},{"APOAPSIS":"548.209","MEAN_MOTION_DDOT":"0.0000000000000","RCS_SIZE":"LARGE","OBJECT_NAME":"STARLINK-2397","MEAN_MOTION":"15.06404066","SITE":"AFETR","EPHEMERIS_TYPE":"0","CLASSIFICATION_TYPE":"U","SEMIMAJOR_AXIS":"6925.336","ELEMENT_SET_NO":"999","TLE_LINE2":"2 47917  53.0565  29.2464 0001456  45.9202 314.1907 15.06404066 42563","OBJECT_TYPE":"PAYLOAD","LAUNCH_DATE":"2021-03-14","RA_OF_ASC_NODE":"29.2464","ARG_OF_PERICENTER":"45.9202","EPOCH":"2021-12-10T19:46:45.472224","FILE":"3237005","ECCENTRICITY":"0.00014560","NORAD_CAT_ID":"47917","PERIAPSIS":"546.193","MEAN_ANOMALY":"314.1907","BSTAR":"0.00007800700000","REV_AT_EPOCH":"4256","TIME_SYSTEM":"UTC","TLE_LINE1":"1 47917U 21021BK  21344.82413741  .00000881  00000-0  78007-4 0  9991","MEAN_ELEMENT_THEORY":"SGP4","MEAN_MOTION_DOT":"0.00000881","DECAY_DATE":null,"GP_ID":"191459652","INCLINATION":"53.0565","COUNTRY_CODE":"US","CENTER_NAME":"EARTH","OBJECT_ID":"2021-021BK","PERIOD":"95.592","REF_FRAME":"TEME"},{"OBJECT_NAME":"STARLINK-2398","MEAN_MOTION":"15.06390071","APOAPSIS":"548.213","MEAN_MOTION_DDOT":"0.0000000000000","RCS_SIZE":"LARGE","SITE":"AFETR","EPHEMERIS_TYPE":"0","CLASSIFICATION_TYPE":"U","TLE_LINE2":"2 47918  53.0575  29.2017 0001399  61.5398 298.5731 15.06390071 42598","LAUNCH_DATE":"2021-03-14","OBJECT_TYPE":"PAYLOAD","RA_OF_ASC_NODE":"29.2017","SEMIMAJOR_AXIS":"6925.379","ELEMENT_SET_NO":"999","ECCENTRICITY":"0.00013990","NORAD_CAT_ID":"47918","ARG_OF_PERICENTER":"61.5398","EPOCH":"2021-12-10T19:57:23.842944","FILE":"3237005","PERIAPSIS":"546.275","BSTAR":"-0.00003322600000","TIME_SYSTEM":"UTC","REV_AT_EPOCH":"4259","MEAN_ANOMALY":"298.5731","DECAY_DATE":null,"TLE_LINE1":"1 47918U 21021BL  21344.83152596 -.00000776  00000-0 -33226-4 0  9990","MEAN_ELEMENT_THEORY":"SGP4","MEAN_MOTION_DOT":"-0.00000776","COUNTRY_CODE":"US","CENTER_NAME":"EARTH","OBJECT_ID":"2021-021BL","PERIOD":"95.593","REF_FRAME":"TEME","GP_ID":"191458400","INCLINATION":"53.0575"},{"DECAY_DATE":null,"MEAN_ELEMENT_THEORY":"SGP4","TLE_LINE1":"1 47919U 21021BM  21344.88218840  .00000972  00000-0  84124-4 0  9990","MEAN_MOTION_DOT":"0.00000972","OBJECT_ID":"2021-021BM","CENTER_NAME":"EARTH","COUNTRY_CODE":"US","PERIOD":"95.592","REF_FRAME":"TEME","GP_ID":"191458150","INCLINATION":"53.0554","PERIAPSIS":"546.391","BSTAR":"0.00008412400000","TIME_SYSTEM":"UTC","REV_AT_EPOCH":"4244","MEAN_ANOMALY":"284.4335","RA_OF_ASC_NODE":"38.9624","TLE_LINE2":"2 47919  53.0554  38.9624 0001159  75.6783 284.4335 15.06406442 42443","OBJECT_TYPE":"PAYLOAD","LAUNCH_DATE":"2021-03-14","SEMIMAJOR_AXIS":"6925.329","ELEMENT_SET_NO":"999","NORAD_CAT_ID":"47919","ECCENTRICITY":"0.00011590","ARG_OF_PERICENTER":"75.6783","FILE":"3237005","EPOCH":"2021-12-10T21:10:21.077760","OBJECT_NAME":"STARLINK-2405","MEAN_MOTION":"15.06406442","APOAPSIS":"547.996","RCS_SIZE":"LARGE","MEAN_MOTION_DDOT":"0.0000000000000","SITE":"AFETR","EPHEMERIS_TYPE":"0","CLASSIFICATION_TYPE":"U"},{"PERIAPSIS":"546.406","REV_AT_EPOCH":"4108","TIME_SYSTEM":"UTC","BSTAR":"0.00000668450000","MEAN_ANOMALY":"272.4730","DECAY_DATE":null,"MEAN_MOTION_DOT":"-0.00000182","TLE_LINE1":"1 47977U 21024A   21344.69192995 -.00000182  00000-0  66845-5 0  9993","MEAN_ELEMENT_THEORY":"SGP4","REF_FRAME":"TEME","PERIOD":"95.593","COUNTRY_CODE":"US","CENTER_NAME":"EARTH","OBJECT_ID":"2021-024A","INCLINATION":"53.0559","GP_ID":"191459659","MEAN_MOTION":"15.06386453","OBJECT_NAME":"STARLINK-2087","MEAN_MOTION_DDOT":"0.0000000000000","RCS_SIZE":"LARGE","APOAPSIS":"548.104","CLASSIFICATION_TYPE":"U","SITE":"AFETR","EPHEMERIS_TYPE":"0","TLE_LINE2":"2 47977  53.0559  84.8184 0001226  87.6399 272.4730 15.06386453 41088","LAUNCH_DATE":"2021-03-24","OBJECT_TYPE":"PAYLOAD","RA_OF_ASC_NODE":"84.8184","ELEMENT_SET_NO":"999","SEMIMAJOR_AXIS":"6925.390","ECCENTRICITY":"0.00012260","NORAD_CAT_ID":"47977","EPOCH":"2021-12-10T16:36:22.747680","FILE":"3237005","ARG_OF_PERICENTER":"87.6399"},{"GP_ID":"191458407","INCLINATION":"53.0543","REF_FRAME":"TEME","PERIOD":"95.592","COUNTRY_CODE":"US","CENTER_NAME":"EARTH","OBJECT_ID":"2021-024B","MEAN_MOTION_DOT":"0.00000766","TLE_LINE1":"1 47978U 21024B   21344.71309734  .00000766  00000-0  70294-4 0  9997","MEAN_ELEMENT_THEORY":"SGP4","DECAY_DATE":null,"MEAN_ANOMALY":"269.8881","TIME_SYSTEM":"UTC","REV_AT_EPOCH":"4094","BSTAR":"0.00007029400000","PERIAPSIS":"546.246","EPOCH":"2021-12-10T17:06:51.610176","FILE":"3237005","ARG_OF_PERICENTER":"90.2265","ECCENTRICITY":"0.00013750","NORAD_CAT_ID":"47978","ELEMENT_SET_NO":"999","SEMIMAJOR_AXIS":"6925.333","TLE_LINE2":"2 47978  53.0543  94.7361 0001375  90.2265 269.8881 15.06405060 40943","LAUNCH_DATE":"2021-03-24","OBJECT_TYPE":"PAYLOAD","RA_OF_ASC_NODE":"94.7361","CLASSIFICATION_TYPE":"U","EPHEMERIS_TYPE":"0","SITE":"AFETR","MEAN_MOTION_DDOT":"0.0000000000000","RCS_SIZE":"LARGE","APOAPSIS":"548.150","MEAN_MOTION":"15.06405060","OBJECT_NAME":"STARLINK-1647"},{"MEAN_ELEMENT_THEORY":"SGP4","TLE_LINE1":"1 47979U 21024C   21345.00001157  .00038567  00000-0  27707-2 0  9998","MEAN_MOTION_DOT":"0.00038567","DECAY_DATE":null,"INCLINATION":"53.0520","GP_ID":"191433653","CENTER_NAME":"EARTH","OBJECT_ID":"2021-024C","COUNTRY_CODE":"US","PERIOD":"95.749","REF_FRAME":"TEME","PERIAPSIS":"553.963","MEAN_ANOMALY":"34.6813","BSTAR":"0.00277070000000","REV_AT_EPOCH":"4138","TIME_SYSTEM":"UTC","SEMIMAJOR_AXIS":"6932.909","ELEMENT_SET_NO":"999","RA_OF_ASC_NODE":"27.7184","TLE_LINE2":"2 47979  53.0520  27.7184 0001169  91.8479  34.6813 15.03936622 41385","OBJECT_TYPE":"PAYLOAD","LAUNCH_DATE":"2021-03-24","ARG_OF_PERICENTER":"91.8479","FILE":"3236873","EPOCH":"2021-12-11T00:00:00.999648","NORAD_CAT_ID":"47979","ECCENTRICITY":"0.00011690","APOAPSIS":"555.584","RCS_SIZE":"LARGE","MEAN_MOTION_DDOT":"0.0000000000000","OBJECT_NAME":"STARLINK-2325","MEAN_MOTION":"15.03936622","SITE":"AFETR","EPHEMERIS_TYPE":"0","CLASSIFICATION_TYPE":"U"},{"CLASSIFICATION_TYPE":"U","SITE":"AFETR","EPHEMERIS_TYPE":"0","MEAN_MOTION":"15.05561365","OBJECT_NAME":"STARLINK-2312","MEAN_MOTION_DDOT":"0.0000000000000","RCS_SIZE":"LARGE","APOAPSIS":"550.599","ECCENTRICITY":"0.00011750","NORAD_CAT_ID":"47980","EPOCH":"2021-12-11T00:00:00.999648","FILE":"3236873","ARG_OF_PERICENTER":"44.6971","TLE_LINE2":"2 47980  53.0550   8.2092 0001175  44.6971 120.0640 15.05561365 41650","OBJECT_TYPE":"PAYLOAD","LAUNCH_DATE":"2021-03-24","RA_OF_ASC_NODE":"8.2092","ELEMENT_SET_NO":"999","SEMIMAJOR_AXIS":"6927.920","REV_AT_EPOCH":"4165","TIME_SYSTEM":"UTC","BSTAR":"0.00226960000000","MEAN_ANOMALY":"120.0640","PERIAPSIS":"548.971","REF_FRAME":"TEME","PERIOD":"95.645","COUNTRY_CODE":"US","OBJECT_ID":"2021-024D","CENTER_NAME":"EARTH","INCLINATION":"53.0550","GP_ID":"191433809","DECAY_DATE":null,"MEAN_MOTION_DOT":"0.00032926","TLE_LINE1":"1 47980U 21024D   21345.00001157  .00032926  00000-0  22696-2 0  9995","MEAN_ELEMENT_THEORY":"SGP4"},{"OBJECT_ID":"2021-024E","CENTER_NAME":"EARTH","COUNTRY_CODE":"US","PERIOD":"95.592","REF_FRAME":"TEME","GP_ID":"191459159","INCLINATION":"53.0559","DECAY_DATE":null,"MEAN_ELEMENT_THEORY":"SGP4","TLE_LINE1":"1 47981U 21024E   21344.83474758 -.00000640  00000-0 -24106-4 0  9997","MEAN_MOTION_DOT":"-0.00000640","BSTAR":"-0.00002410600000","REV_AT_EPOCH":"4096","TIME_SYSTEM":"UTC","MEAN_ANOMALY":"266.0640","PERIAPSIS":"546.338","NORAD_CAT_ID":"47981","ECCENTRICITY":"0.00012830","ARG_OF_PERICENTER":"94.0495","FILE":"3237005","EPOCH":"2021-12-10T20:02:02.190912","RA_OF_ASC_NODE":"94.1991","LAUNCH_DATE":"2021-03-24","TLE_LINE2":"2 47981  53.0559  94.1991 0001283  94.0495 266.0640 15.06395612 40967","OBJECT_TYPE":"PAYLOAD","SEMIMAJOR_AXIS":"6925.362","ELEMENT_SET_NO":"999","SITE":"AFETR","EPHEMERIS_TYPE":"0","CLASSIFICATION_TYPE":"U","OBJECT_NAME":"STARLINK-2303","MEAN_MOTION":"15.06395612","APOAPSIS":"548.116","RCS_SIZE":"LARGE","MEAN_MOTION_DDOT":"0.0000000000000"},{"MEAN_MOTION":"15.04769124","OBJECT_NAME":"STARLINK-2317","MEAN_MOTION_DDOT":"0.0000000000000","RCS_SIZE":"LARGE","APOAPSIS":"553.512","CLASSIFICATION_TYPE":"U","EPHEMERIS_TYPE":"0","SITE":"AFETR","TLE_LINE2":"2 47982  53.0547  23.1876 0001869  49.6058   3.0780 15.04769124 41449","OBJECT_TYPE":"PAYLOAD","LAUNCH_DATE":"2021-03-24","RA_OF_ASC_NODE":"23.1876","ELEMENT_SET_NO":"999","SEMIMAJOR_AXIS":"6930.351","ECCENTRICITY":"0.00018690","NORAD_CAT_ID":"47982","EPOCH":"2021-12-11T00:00:00.999648","FILE":"3236873","ARG_OF_PERICENTER":"49.6058","PERIAPSIS":"550.921","REV_AT_EPOCH":"4144","TIME_SYSTEM":"UTC","BSTAR":"0.00059124000000","MEAN_ANOMALY":"3.0780","DECAY_DATE":null,"MEAN_MOTION_DOT":"0.00008161","TLE_LINE1":"1 47982U 21024F   21345.00001157  .00008161  00000-0  59124-3 0  9998","MEAN_ELEMENT_THEORY":"SGP4","PERIOD":"95.696","REF_FRAME":"TEME","COUNTRY_CODE":"US","CENTER_NAME":"EARTH","OBJECT_ID":"2021-024F","INCLINATION":"53.0547","GP_ID":"191433662"}];
